[{"OBJECT_NAME":"STARLINK-3810","OBJECT_ID":"2022-041A","EPOCH":"2024-06-12T22:25:22.114272","MEAN_MOTION":15.08838114,"ECCENTRICITY":0.0001381,"INCLINATION":53.2181,"RA_OF_ASC_NODE":78.6574,"ARG_OF_PERICENTER":100.6265,"MEAN_ANOMALY":259.4883,"EPHEMERIS_TYPE":0,"CLASSIFICATION_TYPE":"U","NORAD_CAT_ID":52261,"ELEMENT_SET_NO":999,"REV_AT_EPOCH":11853,"BSTAR":-5.5603e-7,"MEAN_MOTION_DOT":-2.97e-6,"MEAN_MOTION_DDOT":0},{"OBJECT_NAME":"STARLINK-3761","OBJECT_ID":"2022-041B","EPOCH":"2024-06-12T22:23:59.356032","MEAN_MOTION":15.08834062,"ECCENTRICITY":0.0001338,"INCLINATION":53.2178,"RA_OF_ASC_NODE":78.6056,"ARG_OF_PERICENTER":94.0453,"MEAN_ANOMALY":266.0692,"EPHEMERIS_TYPE":0,"CLASSIFICATION_TYPE":"U","NORAD_CAT_ID":52262,"ELEMENT_SET_NO":999,"REV_AT_EPOCH":11853,"BSTAR":2.8127e-5,"MEAN_MOTION_DOT":1.6e-6,"MEAN_MOTION_DDOT":0},{"OBJECT_NAME":"STARLINK-3786","OBJECT_ID":"2022-041C","EPOCH":"2024-06-13T03:15:27.193824","MEAN_MOTION":15.08841986,"ECCENTRICITY":0.0001564,"INCLINATION":53.2191,"RA_OF_ASC_NODE":77.7495,"ARG_OF_PERICENTER":94.822,"MEAN_ANOMALY":265.295,"EPHEMERIS_TYPE":0,"CLASSIFICATION_TYPE":"U","NORAD_CAT_ID":52263,"ELEMENT_SET_NO":999,"REV_AT_EPOCH":11977,"BSTAR":-8.8798e-5,"MEAN_MOTION_DOT":-1.701e-5,"MEAN_MOTION_DDOT":0},{"OBJECT_NAME":"STARLINK-3795","OBJECT_ID":"2022-041D","EPOCH":"2024-06-13T04:40:14.373120","MEAN_MOTION":15.08833489,"ECCENTRICITY":0.0001453,"INCLINATION":53.2189,"RA_OF_ASC_NODE":77.4833,"ARG_OF_PERICENTER":95.6395,"MEAN_ANOMALY":264.4763,"EPHEMERIS_TYPE":0,"CLASSIFICATION_TYPE":"U","NORAD_CAT_ID":52264,"ELEMENT_SET_NO":999,"REV_AT_EPOCH":11978,"BSTAR":1.8781e-5,"MEAN_MOTION_DOT":1.1e-7,"MEAN_MOTION_DDOT":0},{"OBJECT_NAME":"STARLINK-3740","OBJECT_ID":"2022-041E","EPOCH":"2024-06-12T22:13:23.897856","MEAN_MOTION":15.08832609,"ECCENTRICITY":0.000133,"INCLINATION":53.2188,"RA_OF_ASC_NODE":78.6879,"ARG_OF_PERICENTER":97.012,"MEAN_ANOMALY":263.1023,"EPHEMERIS_TYPE":0,"CLASSIFICATION_TYPE":"U","NORAD_CAT_ID":52265,"ELEMENT_SET_NO":999,"REV_AT_EPOCH":11853,"BSTAR":-2.6783e-5,"MEAN_MOTION_DOT":-7.14e-6,"MEAN_MOTION_DDOT":0},{"OBJECT_NAME":"STARLINK-3739","OBJECT_ID":"2022-041F","EPOCH":"2024-06-12T22:08:05.975232","MEAN_MOTION":15.08828646,"ECCENTRICITY":0.0001445,"INCLINATION":53.219,"RA_OF_ASC_NODE":78.7055,"ARG_OF_PERICENTER":87.787,"MEAN_ANOMALY":272.3287,"EPHEMERIS_TYPE":0,"CLASSIFICATION_TYPE":"U","NORAD_CAT_ID":52266,"ELEMENT_SET_NO":999,"REV_AT_EPOCH":11853,"BSTAR":-4.4658e-5,"MEAN_MOTION_DOT":-9.98e-6,"MEAN_MOTION_DDOT":0},{"OBJECT_NAME":"STARLINK-3748","OBJECT_ID":"2022-041G","EPOCH":"2024-06-12T23:38:10.407552","MEAN_MOTION":15.08849419,"ECCENTRICITY":0.0001475,"INCLINATION":53.2193,"RA_OF_ASC_NODE":78.4202,"ARG_OF_PERICENTER":90.9101,"MEAN_ANOMALY":269.206,"EPHEMERIS_TYPE":0,"CLASSIFICATION_TYPE":"U","NORAD_CAT_ID":52267,"ELEMENT_SET_NO":999,"REV_AT_EPOCH":11976,"BSTAR":-0.00016621,"MEAN_MOTION_DOT":-2.933e-5,"MEAN_MOTION_DDOT":0},{"OBJECT_NAME":"STARLINK-3746","OBJECT_ID":"2022-041H","EPOCH":"2024-06-13T00:47:03.195168","MEAN_MOTION":15.08840048,"ECCENTRICITY":0.0001525,"INCLINATION":53.2181,"RA_OF_ASC_NODE":78.1298,"ARG_OF_PERICENTER":97.5189,"MEAN_ANOMALY":262.5976,"EPHEMERIS_TYPE":0,"CLASSIFICATION_TYPE":"U","NORAD_CAT_ID":52268,"ELEMENT_SET_NO":999,"REV_AT_EPOCH":11977,"BSTAR":9.2805e-5,"MEAN_MOTION_DOT":1.189e-5,"MEAN_MOTION_DDOT":0},{"OBJECT_NAME":"STARLINK-3791","OBJECT_ID":"2022-041J","EPOCH":"2024-06-13T04:19:01.918848","MEAN_MOTION":15.08839749,"ECCENTRICITY":0.000137,"INCLINATION":53.2182,"RA_OF_ASC_NODE":77.5496,"ARG_OF_PERICENTER":93.2432,"MEAN_ANOMALY":266.8717,"EPHEMERIS_TYPE":0,"CLASSIFICATION_TYPE":"U","NORAD_CAT_ID":52269,"ELEMENT_SET_NO":999,"REV_AT_EPOCH":11979,"BSTAR":8.4517e-6,"MEAN_MOTION_DOT":-1.53e-6,"MEAN_MOTION_DDOT":0},{"OBJECT_NAME":"STARLINK-3804","OBJECT_ID":"2022-041K","EPOCH":"2024-06-13T04:08:26.245536","MEAN_MOTION":15.08840684,"ECCENTRICITY":0.0001461,"INCLINATION":53.219,"RA_OF_ASC_NODE":77.6083,"ARG_OF_PERICENTER":100.5493,"MEAN_ANOMALY":259.5664,"EPHEMERIS_TYPE":0,"CLASSIFICATION_TYPE":"U","NORAD_CAT_ID":52270,"ELEMENT_SET_NO":999,"REV_AT_EPOCH":11978,"BSTAR":-2.0339e-5,"MEAN_MOTION_DOT":-6.12e-6,"MEAN_MOTION_DDOT":0},{"OBJECT_NAME":"STARLINK-3788","OBJECT_ID":"2022-041L","EPOCH":"2024-06-13T04:13:43.959936","MEAN_MOTION":15.0884324,"ECCENTRICITY":0.0001187,"INCLINATION":53.2166,"RA_OF_ASC_NODE":77.567,"ARG_OF_PERICENTER":91.7838,"MEAN_ANOMALY":268.3291,"EPHEMERIS_TYPE":0,"CLASSIFICATION_TYPE":"U","NORAD_CAT_ID":52271,"ELEMENT_SET_NO":999,"REV_AT_EPOCH":11979,"BSTAR":0.00010936,"MEAN_MOTION_DOT":1.453e-5,"MEAN_MOTION_DDOT":0}]
