STARLINK-3810           
1 52261U 22041A   24164.93428373 -.00000297  00000+0 -55603-6 0  9995
2 52261  53.2181  78.6574 0001381 100.6265 259.4883 15.08838114118534
STARLINK-3761           
1 52262U 22041B   24164.93332588  .00000160  00000+0  28127-4 0  9994
2 52262  53.2178  78.6056 0001338  94.0453 266.0692 15.08834062118533
STARLINK-3786           
1 52263U 22041C   24165.13573141 -.00001701  00000+0 -88798-4 0  9994
2 52263  53.2191  77.7495 0001564  94.8220 265.2950 15.08841986119775
STARLINK-3795           
1 52264U 22041D   24165.19461080  .00000011  00000+0  18781-4 0  9995
2 52264  53.2189  77.4833 0001453  95.6395 264.4763 15.08833489119788
STARLINK-3740           
1 52265U 22041E   24164.92597104 -.00000714  00000+0 -26783-4 0  9996
2 52265  53.2188  78.6879 0001330  97.0120 263.1023 15.08832609118537
STARLINK-3739           
1 52266U 22041F   24164.92229138 -.00000998  00000+0 -44658-4 0  9991
2 52266  53.2190  78.7055 0001445  87.7870 272.3287 15.08828646118533
STARLINK-3748           
1 52267U 22041G   24164.98484268 -.00002933  00000+0 -16621-3 0  9994
2 52267  53.2193  78.4202 0001475  90.9101 269.2060 15.08849419119765
STARLINK-3746           
1 52268U 22041H   24165.03267587  .00001189  00000+0  92805-4 0  9994
2 52268  53.2181  78.1298 0001525  97.5189 262.5976 15.08840048119772
STARLINK-3791           
1 52269U 22041J   24165.17988332 -.00000153  00000+0  84517-5 0  9991
2 52269  53.2182  77.5496 0001370  93.2432 266.8717 15.08839749119797
STARLINK-3804           
1 52270U 22041K   24165.17252599 -.00000612  00000+0 -20339-4 0  9994
2 52270  53.2190  77.6083 0001461 100.5493 259.5664 15.08840684119780
STARLINK-3788           
1 52271U 22041L   24165.17620324  .00001453  00000+0  10936-3 0  9993
2 52271  53.2166  77.5670 0001187  91.7838 268.3291 15.08843240119790
